start=new Date('2022-10-14T00:00:00.000Z').valueOf();
sats=[{"APOAPSIS":"548.193","MEAN_ELEMENT_THEORY":"SGP4","NORAD_CAT_ID":"48469","TIME_SYSTEM":"UTC","MEAN_MOTION_DOT":"0.00005748","LAUNCH_DATE":"2021-05-09","CENTER_NAME":"EARTH","RA_OF_ASC_NODE":"12.4509","DECAY_DATE":null,"CLASSIFICATION_TYPE":"U","MEAN_MOTION_DDOT":"0.0000000000000","COUNTRY_CODE":"US","ARG_OF_PERICENTER":"77.0782","REV_AT_EPOCH":"7912","FILE":"3609209","OBJECT_ID":"2021-040AT","EPHEMERIS_TYPE":"0","SITE":"AFETR","SEMIMAJOR_AXIS":"6925.327","PERIAPSIS":"546.191","TLE_LINE2":"2 48469  53.0551  12.4509 0001445  77.0782 283.0368 15.06407071 79128","INCLINATION":"53.0551","PERIOD":"95.592","MEAN_ANOMALY":"283.0368","TLE_LINE1":"1 48469U 21040AT  22286.51273522  .00005748  00000-0  40437-3 0  9990","OBJECT_TYPE":"PAYLOAD","GP_ID":"214992761","REF_FRAME":"TEME","ELEMENT_SET_NO":"999","ECCENTRICITY":"0.00014450","OBJECT_NAME":"STARLINK-2661","BSTAR":"0.00040437000000","EPOCH":"2022-10-13T12:18:20.323008","RCS_SIZE":"LARGE","MEAN_MOTION":"15.06407071"},{"DECAY_DATE":null,"CLASSIFICATION_TYPE":"U","MEAN_MOTION_DDOT":"0.0000000000000","COUNTRY_CODE":"US","ARG_OF_PERICENTER":"45.4635","REV_AT_EPOCH":"7914","FILE":"3609636","OBJECT_ID":"2021-040AU","EPHEMERIS_TYPE":"0","SITE":"AFETR","PERIAPSIS":"545.791","SEMIMAJOR_AXIS":"6925.332","APOAPSIS":"548.603","MEAN_ELEMENT_THEORY":"SGP4","TIME_SYSTEM":"UTC","NORAD_CAT_ID":"48470","MEAN_MOTION_DOT":"0.00010317","CENTER_NAME":"EARTH","LAUNCH_DATE":"2021-05-09","RA_OF_ASC_NODE":"11.5801","GP_ID":"215026329","REF_FRAME":"TEME","ECCENTRICITY":"0.00020300","ELEMENT_SET_NO":"999","OBJECT_NAME":"STARLINK-2675","BSTAR":"0.00071037000000","EPOCH":"2022-10-13T16:58:17.658912","RCS_SIZE":"LARGE","MEAN_MOTION":"15.06405375","TLE_LINE2":"2 48470  53.0559  11.5801 0002030  45.4635 314.6520 15.06405375 79148","INCLINATION":"53.0559","MEAN_ANOMALY":"314.6520","PERIOD":"95.592","OBJECT_TYPE":"PAYLOAD","TLE_LINE1":"1 48470U 21040AU  22286.70714883  .00010317  00000-0  71037-3 0  9991"},{"GP_ID":"215026565","REF_FRAME":"TEME","ELEMENT_SET_NO":"999","ECCENTRICITY":"0.00016740","OBJECT_NAME":"STARLINK-2684","BSTAR":"0.00029507000000","EPOCH":"2022-10-13T15:13:29.188704","RCS_SIZE":"LARGE","MEAN_MOTION":"15.06399343","TLE_LINE2":"2 48471  53.0549  11.9034 0001674  52.5391 307.5750 15.06399343 79133","INCLINATION":"53.0549","PERIOD":"95.592","MEAN_ANOMALY":"307.5750","OBJECT_TYPE":"PAYLOAD","TLE_LINE1":"1 48471U 21040AV  22286.63436561  .00004116  00000-0  29507-3 0  9993","DECAY_DATE":null,"CLASSIFICATION_TYPE":"U","MEAN_MOTION_DDOT":"0.0000000000000","COUNTRY_CODE":"US","ARG_OF_PERICENTER":"52.5391","REV_AT_EPOCH":"7913","FILE":"3609636","OBJECT_ID":"2021-040AV","EPHEMERIS_TYPE":"0","SITE":"AFETR","PERIAPSIS":"546.056","SEMIMAJOR_AXIS":"6925.351","APOAPSIS":"548.375","MEAN_ELEMENT_THEORY":"SGP4","TIME_SYSTEM":"UTC","NORAD_CAT_ID":"48471","MEAN_MOTION_DOT":"0.00004116","CENTER_NAME":"EARTH","LAUNCH_DATE":"2021-05-09","RA_OF_ASC_NODE":"11.9034"},{"TLE_LINE2":"2 48472  53.0562  12.0016 0001639  47.3149 312.7978 15.06393528 79123","INCLINATION":"53.0562","MEAN_ANOMALY":"312.7978","PERIOD":"95.593","TLE_LINE1":"1 48472U 21040AW  22286.61593044  .00003936  00000-0  28304-3 0  9995","OBJECT_TYPE":"PAYLOAD","GP_ID":"215025328","REF_FRAME":"TEME","ECCENTRICITY":"0.00016390","ELEMENT_SET_NO":"999","OBJECT_NAME":"STARLINK-2722","BSTAR":"0.00028304000000","EPOCH":"2022-10-13T14:46:56.390016","RCS_SIZE":"LARGE","MEAN_MOTION":"15.06393528","APOAPSIS":"548.368","MEAN_ELEMENT_THEORY":"SGP4","TIME_SYSTEM":"UTC","NORAD_CAT_ID":"48472","MEAN_MOTION_DOT":"0.00003936","CENTER_NAME":"EARTH","LAUNCH_DATE":"2021-05-09","RA_OF_ASC_NODE":"12.0016","DECAY_DATE":null,"CLASSIFICATION_TYPE":"U","MEAN_MOTION_DDOT":"0.0000000000000","COUNTRY_CODE":"US","ARG_OF_PERICENTER":"47.3149","FILE":"3609636","REV_AT_EPOCH":"7912","OBJECT_ID":"2021-040AW","EPHEMERIS_TYPE":"0","SITE":"AFETR","SEMIMAJOR_AXIS":"6925.368","PERIAPSIS":"546.098"},{"MEAN_MOTION_DOT":"0.00001680","TIME_SYSTEM":"UTC","NORAD_CAT_ID":"48473","MEAN_ELEMENT_THEORY":"SGP4","RA_OF_ASC_NODE":"11.8177","LAUNCH_DATE":"2021-05-09","CENTER_NAME":"EARTH","APOAPSIS":"548.678","OBJECT_ID":"2021-040AX","EPHEMERIS_TYPE":"0","REV_AT_EPOCH":"7913","FILE":"3609636","PERIAPSIS":"545.736","SEMIMAJOR_AXIS":"6925.342","SITE":"AFETR","MEAN_MOTION_DDOT":"0.0000000000000","DECAY_DATE":null,"CLASSIFICATION_TYPE":"U","ARG_OF_PERICENTER":"49.3865","COUNTRY_CODE":"US","OBJECT_TYPE":"PAYLOAD","TLE_LINE1":"1 48473U 21040AX  22286.65279100  .00001680  00000-0  13168-3 0  9990","PERIOD":"95.592","MEAN_ANOMALY":"310.7308","TLE_LINE2":"2 48473  53.0554  11.8177 0002124  49.3865 310.7308 15.06402216 79138","INCLINATION":"53.0554","EPOCH":"2022-10-13T15:40:01.142400","BSTAR":"0.00013168000000","OBJECT_NAME":"STARLINK-2658","MEAN_MOTION":"15.06402216","RCS_SIZE":"LARGE","REF_FRAME":"TEME","GP_ID":"215025578","ECCENTRICITY":"0.00021240","ELEMENT_SET_NO":"999"},{"OBJECT_TYPE":"PAYLOAD","TLE_LINE1":"1 48474U 21040AY  22286.75234228  .00008854  00000-0  61255-3 0  9994","INCLINATION":"53.0556","TLE_LINE2":"2 48474  53.0556  11.3903 0001972  44.6629 315.4518 15.06399100 79142","PERIOD":"95.592","MEAN_ANOMALY":"315.4518","BSTAR":"0.00061255000000","OBJECT_NAME":"STARLINK-2697","EPOCH":"2022-10-13T18:03:22.372992","MEAN_MOTION":"15.06399100","RCS_SIZE":"LARGE","GP_ID":"215026830","REF_FRAME":"TEME","ECCENTRICITY":"0.00019720","ELEMENT_SET_NO":"999","MEAN_ELEMENT_THEORY":"SGP4","MEAN_MOTION_DOT":"0.00008854","NORAD_CAT_ID":"48474","TIME_SYSTEM":"UTC","CENTER_NAME":"EARTH","LAUNCH_DATE":"2021-05-09","RA_OF_ASC_NODE":"11.3903","APOAPSIS":"548.582","FILE":"3609636","REV_AT_EPOCH":"7914","OBJECT_ID":"2021-040AY","EPHEMERIS_TYPE":"0","SITE":"AFETR","SEMIMAJOR_AXIS":"6925.351","PERIAPSIS":"545.851","DECAY_DATE":null,"CLASSIFICATION_TYPE":"U","MEAN_MOTION_DDOT":"0.0000000000000","COUNTRY_CODE":"US","ARG_OF_PERICENTER":"44.6629"},{"LAUNCH_DATE":"2021-05-09","CENTER_NAME":"EARTH","RA_OF_ASC_NODE":"12.4207","MEAN_ELEMENT_THEORY":"SGP4","MEAN_MOTION_DOT":"0.00004039","NORAD_CAT_ID":"48475","TIME_SYSTEM":"UTC","APOAPSIS":"548.544","SITE":"AFETR","SEMIMAJOR_AXIS":"6925.371","PERIAPSIS":"545.927","FILE":"3609209","REV_AT_EPOCH":"7911","EPHEMERIS_TYPE":"0","OBJECT_ID":"2021-040AZ","COUNTRY_CODE":"US","ARG_OF_PERICENTER":"42.8929","DECAY_DATE":null,"CLASSIFICATION_TYPE":"U","MEAN_MOTION_DDOT":"0.0000000000000","TLE_LINE1":"1 48475U 21040AZ  22286.52379491  .00004039  00000-0  28995-3 0  9997","OBJECT_TYPE":"PAYLOAD","INCLINATION":"53.0542","TLE_LINE2":"2 48475  53.0542  12.4207 0001889  42.8929 317.2207 15.06392816 79116","MEAN_ANOMALY":"317.2207","PERIOD":"95.593","MEAN_MOTION":"15.06392816","RCS_SIZE":"LARGE","BSTAR":"0.00028995000000","OBJECT_NAME":"STARLINK-2619","EPOCH":"2022-10-13T12:34:15.880224","ECCENTRICITY":"0.00018890","ELEMENT_SET_NO":"999","GP_ID":"214993264","REF_FRAME":"TEME"},{"APOAPSIS":"548.507","MEAN_ELEMENT_THEORY":"SGP4","NORAD_CAT_ID":"48476","TIME_SYSTEM":"UTC","MEAN_MOTION_DOT":"0.00003029","CENTER_NAME":"EARTH","LAUNCH_DATE":"2021-05-09","RA_OF_ASC_NODE":"12.0119","DECAY_DATE":null,"CLASSIFICATION_TYPE":"U","MEAN_MOTION_DDOT":"0.0000000000000","COUNTRY_CODE":"US","ARG_OF_PERICENTER":"41.1928","FILE":"3609636","REV_AT_EPOCH":"7912","EPHEMERIS_TYPE":"0","OBJECT_ID":"2021-040BA","SITE":"AFETR","SEMIMAJOR_AXIS":"6925.362","PERIAPSIS":"545.946","TLE_LINE2":"2 48476  53.0566  12.0119 0001849  41.1928 318.9200 15.06395729 79126","INCLINATION":"53.0566","MEAN_ANOMALY":"318.9200","PERIOD":"95.592","TLE_LINE1":"1 48476U 21040BA  22286.61224563  .00003029  00000-0  22220-3 0  9990","OBJECT_TYPE":"PAYLOAD","GP_ID":"215025829","REF_FRAME":"TEME","ECCENTRICITY":"0.00018490","ELEMENT_SET_NO":"999","OBJECT_NAME":"STARLINK-2723","BSTAR":"0.00022220000000","EPOCH":"2022-10-13T14:41:38.022432","RCS_SIZE":"LARGE","MEAN_MOTION":"15.06395729"},{"FILE":"3609636","REV_AT_EPOCH":"7914","EPHEMERIS_TYPE":"0","OBJECT_ID":"2021-040BC","SITE":"AFETR","PERIAPSIS":"545.505","SEMIMAJOR_AXIS":"6925.314","CLASSIFICATION_TYPE":"U","DECAY_DATE":null,"MEAN_MOTION_DDOT":"0.0000000000000","COUNTRY_CODE":"US","ARG_OF_PERICENTER":"36.9999","MEAN_ELEMENT_THEORY":"SGP4","NORAD_CAT_ID":"48478","TIME_SYSTEM":"UTC","MEAN_MOTION_DOT":"0.00009623","CENTER_NAME":"EARTH","LAUNCH_DATE":"2021-05-09","RA_OF_ASC_NODE":"11.4869","APOAPSIS":"548.854","OBJECT_NAME":"STARLINK-2728","BSTAR":"0.00066387000000","EPOCH":"2022-10-13T17:31:29.593632","RCS_SIZE":"LARGE","MEAN_MOTION":"15.06411161","GP_ID":"215026079","REF_FRAME":"TEME","ECCENTRICITY":"0.00024180","ELEMENT_SET_NO":"999","TLE_LINE1":"1 48478U 02032DG  22286.73020363  .00009623  00000-0  66387-3 0  9995","OBJECT_TYPE":"PAYLOAD","INCLINATION":"53.0547","TLE_LINE2":"2 48478  53.0547  11.4869 0002418  36.9999 323.1156 15.06411161 79144","PERIOD":"95.591","MEAN_ANOMALY":"323.1156"},{"ECCENTRICITY":"0.00013010","ELEMENT_SET_NO":"999","REF_FRAME":"TEME","GP_ID":"215026330","RCS_SIZE":"LARGE","MEAN_MOTION":"15.06363951","EPOCH":"2022-10-13T15:50:39.437952","OBJECT_NAME":"STARLINK-2755","BSTAR":"-0.00008097400000","MEAN_ANOMALY":"304.3352","PERIOD":"95.594","INCLINATION":"53.0569","TLE_LINE2":"2 48479  53.0569  11.8086 0001301  55.7760 304.3352 15.06363951 79130","TLE_LINE1":"1 48479U 21040BD  22286.66017868 -.00001486  00000-0 -80974-4 0  9994","OBJECT_TYPE":"PAYLOAD","ARG_OF_PERICENTER":"55.7760","COUNTRY_CODE":"US","MEAN_MOTION_DDOT":"0.0000000000000","CLASSIFICATION_TYPE":"U","DECAY_DATE":null,"SEMIMAJOR_AXIS":"6925.459","PERIAPSIS":"546.423","SITE":"AFETR","OBJECT_ID":"2021-040BD","EPHEMERIS_TYPE":"0","FILE":"3609636","REV_AT_EPOCH":"7913","APOAPSIS":"548.225","RA_OF_ASC_NODE":"11.8086","CENTER_NAME":"EARTH","LAUNCH_DATE":"2021-05-09","TIME_SYSTEM":"UTC","NORAD_CAT_ID":"48479","MEAN_MOTION_DOT":"-0.00001486","MEAN_ELEMENT_THEORY":"SGP4"}];
